{
  "norad_id": 57456,
  "name": "YAOGAN-36 05C",
  "history": [
    {
      "epoch": "2026-03-28T18:39:33.763968Z",
      "apogee_km": 519.9086781638862,
      "perigee_km": 506.8984144281558,
      "latitude_deg": 4.909724819081974e-05,
      "longitude_deg": 115.94253721159859,
      "height_km": 506.03015166289424,
      "semi_major_axis_km": 6891.540546296021,
      "eccentricity": 0.00094393,
      "inclination_deg": 34.9926,
      "raan_deg": 222.0262,
      "arg_perigee_deg": 345.0682,
      "mean_anomaly_deg": 14.9752,
      "mean_motion_rev_day": 15.17498563
    }
  ]
}